KUIPER-00071            
1 64818U 25151C   26018.81877515  .00003184  00000+0  44647-3 0  9993
2 64818  51.9000 163.6051 0007575  74.3361 285.8437 14.79940564 27885
KUIPER-00072            
1 64819U 25151D   26018.60031481  .00004014  00000+0  53394-3 0  9997
2 64819  51.8987 144.5320 0000664  89.5342 270.5697 14.81601258 28130
KUIPER-00073            
1 64820U 25151E   26018.91670139 -.00012264  00000+0 -15909-2 0  9999
2 64820  51.8986 163.1700 0007560  99.9740 240.8680 14.79689084  4821
KUIPER-00074            
1 64821U 25151F   26018.66375025  .00003965  00000+0  54823-3 0  9993
2 64821  51.9002 151.8066 0013253 106.1578 254.0844 14.79953727 28033
KUIPER-00075            
1 64822U 25151G   26018.96393472  .00039709  00000+0  99344-3 0  9995
2 64822  51.8731 103.4890 0004125 102.6581 257.4868 15.39710898 28730
KUIPER-00076            
1 64823U 25151H   26018.66113083  .00008186  00000+0  11005-2 0  9993
2 64823  51.9000 154.3125 0002417 136.0048 224.1107 14.79969229 28002
KUIPER-00077            
1 64824U 25151J   26018.79062407  .00003745  00000+0  51969-3 0  9991
2 64824  51.9000 158.7457 0006494  77.6717 282.4972 14.79965102 27957
KUIPER-00078            
1 64825U 25151K   26018.75965270  .00009857  00000+0  13193-2 0  9994
2 64825  51.8997 156.3754 0002962 141.8122 218.3050 14.79956054 27980
