<?xml version="1.0" encoding="UTF-8"?>
<ndm xmlns:xsi="http://www.w3.org/2001/XMLSchema-instance" xsi:noNamespaceSchemaLocation="https://sanaregistry.org/r/ndmxml_unqualified/ndmxml-2.0.0-master-2.0.xsd">
<omm id="CCSDS_OMM_VERS" version="2.0">
<header><CREATION_DATE/><ORIGINATOR/></header><body><segment><metadata><OBJECT_NAME>KUIPER-00071</OBJECT_NAME><OBJECT_ID>2025-151C</OBJECT_ID><CENTER_NAME>EARTH</CENTER_NAME><REF_FRAME>TEME</REF_FRAME><TIME_SYSTEM>UTC</TIME_SYSTEM><MEAN_ELEMENT_THEORY>SGP4</MEAN_ELEMENT_THEORY></metadata><data><meanElements><EPOCH>2026-01-18T19:39:02.172960</EPOCH><MEAN_MOTION>14.79940564</MEAN_MOTION><ECCENTRICITY>.00075751</ECCENTRICITY><INCLINATION>51.9000</INCLINATION><RA_OF_ASC_NODE>163.6051</RA_OF_ASC_NODE><ARG_OF_PERICENTER>74.3361</ARG_OF_PERICENTER><MEAN_ANOMALY>285.8437</MEAN_ANOMALY></meanElements><tleParameters><EPHEMERIS_TYPE>0</EPHEMERIS_TYPE><CLASSIFICATION_TYPE>U</CLASSIFICATION_TYPE><NORAD_CAT_ID>64818</NORAD_CAT_ID><ELEMENT_SET_NO>999</ELEMENT_SET_NO><REV_AT_EPOCH>2788</REV_AT_EPOCH><BSTAR>.44646704E-3</BSTAR><MEAN_MOTION_DOT>.3184E-4</MEAN_MOTION_DOT><MEAN_MOTION_DDOT>0</MEAN_MOTION_DDOT></tleParameters></data></segment></body></omm>
<omm id="CCSDS_OMM_VERS" version="2.0">
<header><CREATION_DATE/><ORIGINATOR/></header><body><segment><metadata><OBJECT_NAME>KUIPER-00072</OBJECT_NAME><OBJECT_ID>2025-151D</OBJECT_ID><CENTER_NAME>EARTH</CENTER_NAME><REF_FRAME>TEME</REF_FRAME><TIME_SYSTEM>UTC</TIME_SYSTEM><MEAN_ELEMENT_THEORY>SGP4</MEAN_ELEMENT_THEORY></metadata><data><meanElements><EPOCH>2026-01-18T14:24:27.199584</EPOCH><MEAN_MOTION>14.81601258</MEAN_MOTION><ECCENTRICITY>.00006642</ECCENTRICITY><INCLINATION>51.8987</INCLINATION><RA_OF_ASC_NODE>144.5320</RA_OF_ASC_NODE><ARG_OF_PERICENTER>89.5342</ARG_OF_PERICENTER><MEAN_ANOMALY>270.5697</MEAN_ANOMALY></meanElements><tleParameters><EPHEMERIS_TYPE>0</EPHEMERIS_TYPE><CLASSIFICATION_TYPE>U</CLASSIFICATION_TYPE><NORAD_CAT_ID>64819</NORAD_CAT_ID><ELEMENT_SET_NO>999</ELEMENT_SET_NO><REV_AT_EPOCH>2813</REV_AT_EPOCH><BSTAR>.53393761E-3</BSTAR><MEAN_MOTION_DOT>.4014E-4</MEAN_MOTION_DOT><MEAN_MOTION_DDOT>0</MEAN_MOTION_DDOT></tleParameters></data></segment></body></omm>
<omm id="CCSDS_OMM_VERS" version="2.0">
<header><CREATION_DATE/><ORIGINATOR/></header><body><segment><metadata><OBJECT_NAME>KUIPER-00073</OBJECT_NAME><OBJECT_ID>2025-151E</OBJECT_ID><CENTER_NAME>EARTH</CENTER_NAME><REF_FRAME>TEME</REF_FRAME><TIME_SYSTEM>UTC</TIME_SYSTEM><MEAN_ELEMENT_THEORY>SGP4</MEAN_ELEMENT_THEORY></metadata><data><meanElements><EPOCH>2026-01-18T22:00:03.000096</EPOCH><MEAN_MOTION>14.79689084</MEAN_MOTION><ECCENTRICITY>.00075602</ECCENTRICITY><INCLINATION>51.8986</INCLINATION><RA_OF_ASC_NODE>163.1700</RA_OF_ASC_NODE><ARG_OF_PERICENTER>99.9740</ARG_OF_PERICENTER><MEAN_ANOMALY>240.8680</MEAN_ANOMALY></meanElements><tleParameters><EPHEMERIS_TYPE>0</EPHEMERIS_TYPE><CLASSIFICATION_TYPE>U</CLASSIFICATION_TYPE><NORAD_CAT_ID>64820</NORAD_CAT_ID><ELEMENT_SET_NO>999</ELEMENT_SET_NO><REV_AT_EPOCH>482</REV_AT_EPOCH><BSTAR>-.15908958E-2</BSTAR><MEAN_MOTION_DOT>-.12264E-3</MEAN_MOTION_DOT><MEAN_MOTION_DDOT>0</MEAN_MOTION_DDOT></tleParameters></data></segment></body></omm>
<omm id="CCSDS_OMM_VERS" version="2.0">
<header><CREATION_DATE/><ORIGINATOR/></header><body><segment><metadata><OBJECT_NAME>KUIPER-00074</OBJECT_NAME><OBJECT_ID>2025-151F</OBJECT_ID><CENTER_NAME>EARTH</CENTER_NAME><REF_FRAME>TEME</REF_FRAME><TIME_SYSTEM>UTC</TIME_SYSTEM><MEAN_ELEMENT_THEORY>SGP4</MEAN_ELEMENT_THEORY></metadata><data><meanElements><EPOCH>2026-01-18T15:55:48.021600</EPOCH><MEAN_MOTION>14.79953727</MEAN_MOTION><ECCENTRICITY>.00132539</ECCENTRICITY><INCLINATION>51.9002</INCLINATION><RA_OF_ASC_NODE>151.8066</RA_OF_ASC_NODE><ARG_OF_PERICENTER>106.1578</ARG_OF_PERICENTER><MEAN_ANOMALY>254.0844</MEAN_ANOMALY></meanElements><tleParameters><EPHEMERIS_TYPE>0</EPHEMERIS_TYPE><CLASSIFICATION_TYPE>U</CLASSIFICATION_TYPE><NORAD_CAT_ID>64821</NORAD_CAT_ID><ELEMENT_SET_NO>999</ELEMENT_SET_NO><REV_AT_EPOCH>2803</REV_AT_EPOCH><BSTAR>.54823269E-3</BSTAR><MEAN_MOTION_DOT>.3965E-4</MEAN_MOTION_DOT><MEAN_MOTION_DDOT>0</MEAN_MOTION_DDOT></tleParameters></data></segment></body></omm>
<omm id="CCSDS_OMM_VERS" version="2.0">
<header><CREATION_DATE/><ORIGINATOR/></header><body><segment><metadata><OBJECT_NAME>KUIPER-00075</OBJECT_NAME><OBJECT_ID>2025-151G</OBJECT_ID><CENTER_NAME>EARTH</CENTER_NAME><REF_FRAME>TEME</REF_FRAME><TIME_SYSTEM>UTC</TIME_SYSTEM><MEAN_ELEMENT_THEORY>SGP4</MEAN_ELEMENT_THEORY></metadata><data><meanElements><EPOCH>2026-01-18T23:08:03.959808</EPOCH><MEAN_MOTION>15.39710898</MEAN_MOTION><ECCENTRICITY>.00041254</ECCENTRICITY><INCLINATION>51.8731</INCLINATION><RA_OF_ASC_NODE>103.4890</RA_OF_ASC_NODE><ARG_OF_PERICENTER>102.6581</ARG_OF_PERICENTER><MEAN_ANOMALY>257.4868</MEAN_ANOMALY></meanElements><tleParameters><EPHEMERIS_TYPE>0</EPHEMERIS_TYPE><CLASSIFICATION_TYPE>U</CLASSIFICATION_TYPE><NORAD_CAT_ID>64822</NORAD_CAT_ID><ELEMENT_SET_NO>999</ELEMENT_SET_NO><REV_AT_EPOCH>2873</REV_AT_EPOCH><BSTAR>.99343596E-3</BSTAR><MEAN_MOTION_DOT>.39709E-3</MEAN_MOTION_DOT><MEAN_MOTION_DDOT>0</MEAN_MOTION_DDOT></tleParameters></data></segment></body></omm>
<omm id="CCSDS_OMM_VERS" version="2.0">
<header><CREATION_DATE/><ORIGINATOR/></header><body><segment><metadata><OBJECT_NAME>KUIPER-00076</OBJECT_NAME><OBJECT_ID>2025-151H</OBJECT_ID><CENTER_NAME>EARTH</CENTER_NAME><REF_FRAME>TEME</REF_FRAME><TIME_SYSTEM>UTC</TIME_SYSTEM><MEAN_ELEMENT_THEORY>SGP4</MEAN_ELEMENT_THEORY></metadata><data><meanElements><EPOCH>2026-01-18T15:52:01.703712</EPOCH><MEAN_MOTION>14.79969229</MEAN_MOTION><ECCENTRICITY>.0002417</ECCENTRICITY><INCLINATION>51.9000</INCLINATION><RA_OF_ASC_NODE>154.3125</RA_OF_ASC_NODE><ARG_OF_PERICENTER>136.0048</ARG_OF_PERICENTER><MEAN_ANOMALY>224.1107</MEAN_ANOMALY></meanElements><tleParameters><EPHEMERIS_TYPE>0</EPHEMERIS_TYPE><CLASSIFICATION_TYPE>U</CLASSIFICATION_TYPE><NORAD_CAT_ID>64823</NORAD_CAT_ID><ELEMENT_SET_NO>999</ELEMENT_SET_NO><REV_AT_EPOCH>2800</REV_AT_EPOCH><BSTAR>.11005069E-2</BSTAR><MEAN_MOTION_DOT>.8186E-4</MEAN_MOTION_DOT><MEAN_MOTION_DDOT>0</MEAN_MOTION_DDOT></tleParameters></data></segment></body></omm>
<omm id="CCSDS_OMM_VERS" version="2.0">
<header><CREATION_DATE/><ORIGINATOR/></header><body><segment><metadata><OBJECT_NAME>KUIPER-00077</OBJECT_NAME><OBJECT_ID>2025-151J</OBJECT_ID><CENTER_NAME>EARTH</CENTER_NAME><REF_FRAME>TEME</REF_FRAME><TIME_SYSTEM>UTC</TIME_SYSTEM><MEAN_ELEMENT_THEORY>SGP4</MEAN_ELEMENT_THEORY></metadata><data><meanElements><EPOCH>2026-01-18T18:58:29.919648</EPOCH><MEAN_MOTION>14.79965102</MEAN_MOTION><ECCENTRICITY>.00064945</ECCENTRICITY><INCLINATION>51.9000</INCLINATION><RA_OF_ASC_NODE>158.7457</RA_OF_ASC_NODE><ARG_OF_PERICENTER>77.6717</ARG_OF_PERICENTER><MEAN_ANOMALY>282.4972</MEAN_ANOMALY></meanElements><tleParameters><EPHEMERIS_TYPE>0</EPHEMERIS_TYPE><CLASSIFICATION_TYPE>U</CLASSIFICATION_TYPE><NORAD_CAT_ID>64824</NORAD_CAT_ID><ELEMENT_SET_NO>999</ELEMENT_SET_NO><REV_AT_EPOCH>2795</REV_AT_EPOCH><BSTAR>.51969123E-3</BSTAR><MEAN_MOTION_DOT>.3745E-4</MEAN_MOTION_DOT><MEAN_MOTION_DDOT>0</MEAN_MOTION_DDOT></tleParameters></data></segment></body></omm>
<omm id="CCSDS_OMM_VERS" version="2.0">
<header><CREATION_DATE/><ORIGINATOR/></header><body><segment><metadata><OBJECT_NAME>KUIPER-00078</OBJECT_NAME><OBJECT_ID>2025-151K</OBJECT_ID><CENTER_NAME>EARTH</CENTER_NAME><REF_FRAME>TEME</REF_FRAME><TIME_SYSTEM>UTC</TIME_SYSTEM><MEAN_ELEMENT_THEORY>SGP4</MEAN_ELEMENT_THEORY></metadata><data><meanElements><EPOCH>2026-01-18T18:13:53.993280</EPOCH><MEAN_MOTION>14.79956054</MEAN_MOTION><ECCENTRICITY>.00029627</ECCENTRICITY><INCLINATION>51.8997</INCLINATION><RA_OF_ASC_NODE>156.3754</RA_OF_ASC_NODE><ARG_OF_PERICENTER>141.8122</ARG_OF_PERICENTER><MEAN_ANOMALY>218.3050</MEAN_ANOMALY></meanElements><tleParameters><EPHEMERIS_TYPE>0</EPHEMERIS_TYPE><CLASSIFICATION_TYPE>U</CLASSIFICATION_TYPE><NORAD_CAT_ID>64825</NORAD_CAT_ID><ELEMENT_SET_NO>999</ELEMENT_SET_NO><REV_AT_EPOCH>2798</REV_AT_EPOCH><BSTAR>.13193396E-2</BSTAR><MEAN_MOTION_DOT>.9857E-4</MEAN_MOTION_DOT><MEAN_MOTION_DDOT>0</MEAN_MOTION_DDOT></tleParameters></data></segment></body></omm>

</ndm>
